HODOYOSHI-4             
1 40011U 14033B   26196.13987414  .00001409  00000+0  15782-3 0  9997
2 40011  97.5451  19.6146 0022646 209.6764 150.3170 14.88191355652960
DEIMOS-2                
1 40013U 14033D   26196.18357332  .00000883  00000+0  88383-4 0  9997
2 40013  97.5792  69.6847 0000919 107.0606 253.0715 14.93794863641905
HODOYOSHI-3             
1 40015U 14033F   26196.00577786  .00000453  00000+0  58262-4 0  9993
2 40015  97.6445 357.9316 0031294 262.5544  97.2116 14.85436970651755
SPOT 7                  
1 40053U 14034A   26196.19336321  .00000031  00000+0  15492-4 0  9994
2 40053  98.0621 257.9615 0001589  94.8580 265.2803 14.60980437641225
SKYSAT-B                
1 40072U 14037D   26195.89618554  .00000603  00000+0  72253-4 0  9998
2 40072  98.3853 156.4444 0005536 173.5386 186.5901 14.88091619650087
WORLDVIEW-3 (WV-3)      
1 40115U 14048A   26196.19716257  .00000394  00000+0  52415-4 0  9996
2 40115  97.8556 270.6424 0001298 156.3329 203.7945 14.85064223646064
GAOFEN-2                
1 40118U 14049A   26196.21665191  .00000694  00000+0  96670-4 0  9997
2 40118  98.0103 260.3953 0008269 134.5385 225.6503 14.80929177643384
YAOGAN-21               
1 40143U 14053A   26196.21728973  .00003254  00000+0  12626-3 0  9991
2 40143  97.1457 235.2541 0007810   8.5146 351.6224 15.26759822659234
YAOGAN-22               
1 40275U 14063A   26196.02036778 -.00000067  00000+0 -53111-4 0  9998
2 40275 100.7762 347.7601 0006865 125.5408 234.6344 13.15531530563479
ASNARO                  
1 40298U 14070A   26196.14434928  .00004771  00000+0  22563-3 0  9993
2 40298  97.3455 271.5072 0006713  88.7307 271.4697 15.19829896648251
YAOGAN-24               
1 40310U 14072A   26196.21290804  .00000376  00000+0  62129-4 0  9991
2 40310  98.1521 333.7893 0014627 169.5786 190.5729 14.76118384627858
CBERS 4                 
1 40336U 14079A   26196.19672457  .00000012  00000+0  18873-4 0  9995
2 40336  98.3522 252.1474 0000794  52.0874 308.0384 14.35515940607970
YAOGAN-26               
1 40362U 14088A   26196.18977674  .00018184  00000+0  34389-3 0  9990
2 40362  97.0641 195.7648 0001921 341.8713  18.2470 15.48451120642032
SMAP                    
1 40376U 15003A   26196.18234242  .00000191  00000+0  46002-4 0  9995
2 40376  98.1284 202.8812 0001599  95.1759 264.9625 14.63389173611712
KOMPSAT-3A              
1 40536U 15014A   26196.23977190  .00020043  00000+0  27541-3 0  9991
2 40536  97.6887 189.6842 0056283  75.4860 285.2627 15.55427254626171
SENTINEL-2A             
1 40697U 15028A   26196.18672514 -.00000024  00000+0  73158-5 0  9995
2 40697  98.5684 270.6396 0001265  95.1080 265.0247 14.30814152577732
GAOFEN-8                
1 40701U 15030A   26196.17008216  .00009663  00000+0  19341-3 0  9994
2 40701  97.6885  31.2390 0009999  95.6849 264.5540 15.46939934615777
CARBONITE 1 (CBNT-1)    
1 40718U 15032D   26196.17168646  .00000582  00000+0  76569-4 0  9995
2 40718  97.6511  13.0688 0013860 197.2371 162.8375 14.83665992593490
YAOGAN-27               
1 40878U 15040A   26196.23227132  .00000465  00000+0  13347-2 0  9997
2 40878 100.1163 181.3996 0008563 144.9138 215.2541 13.16073778521359
GAOFEN-9 01             
1 40894U 15047A   26196.20025860  .00000506  00000+0  68193-4 0  9990
2 40894  97.6265 230.6210 0028462  50.4791 309.8932 14.82935172584344
YAOGAN-28               
1 41026U 15064A   26196.22768177  .00003863  00000+0  14488-3 0  9990
2 41026  97.3110 333.9292 0012071  92.9693 267.2928 15.27760432594962
YAOGAN-29               
1 41038U 15069A   26196.17685406  .00000544  00000+0  73369-4 0  9992
2 41038  98.0018 224.8524 0000689  14.9555 345.1678 14.83107495574779
KENT RIDGE 1            
1 41167U 15077B   26195.27312472  .00002444  00000+0  68866-4 0  9991
2 41167  14.9803  64.5207 0008299 262.2466  97.6913 15.23280956585235
GAOFEN-4                
1 41194U 15083A   26194.68502446 -.00000340  00000+0  00000+0 0  9999
2 41194   0.4223  83.7871 0003940 124.9375  75.1281  1.00274923 38792
JASON-3                 
1 41240U 16002A   26196.19693336 -.00000022  00000+0  16043-3 0  9995
2 41240  66.0416  66.9487 0008181 270.9589  89.0492 12.87628659490856
SENTINEL-3A             
1 41335U 16011A   26196.19837653  .00000045  00000+0  36608-4 0  9996
2 41335  98.6238 263.1778 0001360  89.8744 270.2592 14.26739765542051
ZIYUAN 3-02 (ZY 3-02)   
1 41556U 16033A   26196.20961420  .00002909  00000+0  13231-3 0  9994
2 41556  97.3829 271.4450 0014079 184.8524 175.2578 15.21434379562240
CARTOSAT-2C             
1 41599U 16040A   26196.18463677  .00002606  00000+0  12673-3 0  9990
2 41599  97.4469 255.7752 0009554  44.8870 315.3136 15.19264086557962
SKYSAT-C1               
1 41601U 16040C   26196.02438898  .00005088  00000+0  14384-3 0  9992
2 41601  96.9548 226.2409 0000285 314.5309  45.5913 15.36746159562142
LAPAN-A3                
1 41603U 16040E   26196.19011883  .00001830  00000+0  59200-4 0  9991
2 41603  97.1505 191.4207 0008250 276.2287  83.8016 15.33277755559107
GAOFEN-3                
1 41727U 16049A   26196.18204363  .00000092  00000+0  40970-4 0  9996
2 41727  98.4010 203.5457 0001779  84.9356 275.2037 14.42218984522682
