OBJECT_NAME,OBJECT_ID,EPOCH,MEAN_MOTION,ECCENTRICITY,INCLINATION,RA_OF_ASC_NODE,ARG_OF_PERICENTER,MEAN_ANOMALY,EPHEMERIS_TYPE,CLASSIFICATION_TYPE,NORAD_CAT_ID,ELEMENT_SET_NO,REV_AT_EPOCH,BSTAR,MEAN_MOTION_DOT,MEAN_MOTION_DDOT
HODOYOSHI-4,2014-033B,2026-07-15T03:21:25.125696,14.88191355,.0022646,97.5451,19.6146,209.6764,150.3170,0,U,40011,999,65296,.15782E-3,.1409E-4,0
DEIMOS-2,2014-033D,2026-07-15T04:24:20.734848,14.93794863,.0000919,97.5792,69.6847,107.0606,253.0715,0,U,40013,999,64190,.88383E-4,.883E-5,0
HODOYOSHI-3,2014-033F,2026-07-15T00:08:19.207104,14.85436970,.0031294,97.6445,357.9316,262.5544,97.2116,0,U,40015,999,65175,.58262E-4,.453E-5,0
SPOT 7,2014-034A,2026-07-15T04:38:26.581344,14.60980437,.0001589,98.0621,257.9615,94.8580,265.2803,0,U,40053,999,64122,.15492E-4,.31E-6,0
SKYSAT-B,2014-037D,2026-07-14T21:30:30.430656,14.88091619,.0005536,98.3853,156.4444,173.5386,186.5901,0,U,40072,999,65008,.72253E-4,.603E-5,0
WORLDVIEW-3 (WV-3),2014-048A,2026-07-15T04:43:54.846048,14.85064223,.0001298,97.8556,270.6424,156.3329,203.7945,0,U,40115,999,64606,.52415E-4,.394E-5,0
GAOFEN-2,2014-049A,2026-07-15T05:11:58.725024,14.80929177,.0008269,98.0103,260.3953,134.5385,225.6503,0,U,40118,999,64338,.9667E-4,.694E-5,0
YAOGAN-21,2014-053A,2026-07-15T05:12:53.832672,15.26759822,.000781,97.1457,235.2541,8.5146,351.6224,0,U,40143,999,65923,.12626E-3,.3254E-4,0
YAOGAN-22,2014-063A,2026-07-15T00:29:19.776192,13.15531530,.0006865,100.7762,347.7601,125.5408,234.6344,0,U,40275,999,56347,-.53111E-4,-.67E-6,0
ASNARO,2014-070A,2026-07-15T03:27:51.777792,15.19829896,.0006713,97.3455,271.5072,88.7307,271.4697,0,U,40298,999,64825,.22563E-3,.4771E-4,0
YAOGAN-24,2014-072A,2026-07-15T05:06:35.254656,14.76118384,.0014627,98.1521,333.7893,169.5786,190.5729,0,U,40310,999,62785,.62129E-4,.376E-5,0
CBERS 4,2014-079A,2026-07-15T04:43:17.002848,14.35515940,.0000794,98.3522,252.1474,52.0874,308.0384,0,U,40336,999,60797,.18873E-4,.12E-6,0
YAOGAN-26,2014-088A,2026-07-15T04:33:16.710336,15.48451120,.0001921,97.0641,195.7648,341.8713,18.2470,0,U,40362,999,64203,.34389E-3,.18184E-3,0
SMAP,2015-003A,2026-07-15T04:22:34.385088,14.63389173,.0001599,98.1284,202.8812,95.1759,264.9625,0,U,40376,999,61171,.46002E-4,.191E-5,0
KOMPSAT-3A,2015-014A,2026-07-15T05:45:16.292160,15.55427254,.0056283,97.6887,189.6842,75.4860,285.2627,0,U,40536,999,62617,.27541E-3,.20043E-3,0
SENTINEL-2A,2015-028A,2026-07-15T04:28:53.052096,14.30814152,.0001265,98.5684,270.6396,95.1080,265.0247,0,U,40697,999,57773,.73158E-5,-.24E-6,0
GAOFEN-8,2015-030A,2026-07-15T04:04:55.098624,15.46939934,.0009999,97.6885,31.2390,95.6849,264.5540,0,U,40701,999,61577,.19341E-3,.9663E-4,0
CARBONITE 1 (CBNT-1),2015-032D,2026-07-15T04:07:13.710144,14.83665992,.001386,97.6511,13.0688,197.2371,162.8375,0,U,40718,999,59349,.76569E-4,.582E-5,0
YAOGAN-27,2015-040A,2026-07-15T05:34:28.242048,13.16073778,.0008563,100.1163,181.3996,144.9138,215.2541,0,U,40878,999,52135,.13347E-2,.465E-5,0
GAOFEN-9 01,2015-047A,2026-07-15T04:48:22.343040,14.82935172,.0028462,97.6265,230.6210,50.4791,309.8932,0,U,40894,999,58434,.68193E-4,.506E-5,0
YAOGAN-28,2015-064A,2026-07-15T05:27:51.704928,15.27760432,.0012071,97.3110,333.9292,92.9693,267.2928,0,U,41026,999,59496,.14488E-3,.3863E-4,0
YAOGAN-29,2015-069A,2026-07-15T04:14:40.190784,14.83107495,.0000689,98.0018,224.8524,14.9555,345.1678,0,U,41038,999,57477,.73369E-4,.544E-5,0
KENT RIDGE 1,2015-077B,2026-07-14T06:33:17.975808,15.23280956,.00082992,14.9803,64.5207,262.2466,97.6913,0,U,41167,999,58523,.68866126E-4,.2444E-4,0
GAOFEN-4,2015-083A,2026-07-13T16:26:26.113344,1.00274923,.00039405,0.4223,83.7871,124.9375,75.1281,0,U,41194,999,3879,0,-.34E-5,0
JASON-3,2016-002A,2026-07-15T04:43:35.042304,12.87628659,.0008181,66.0416,66.9487,270.9589,89.0492,0,U,41240,999,49085,.16043E-3,-.22E-6,0
SENTINEL-3A,2016-011A,2026-07-15T04:45:39.732192,14.26739765,.000136,98.6238,263.1778,89.8744,270.2592,0,U,41335,999,54205,.36608E-4,.45E-6,0
ZIYUAN 3-02 (ZY 3-02),2016-033A,2026-07-15T05:01:50.666880,15.21434379,.0014079,97.3829,271.4450,184.8524,175.2578,0,U,41556,999,56224,.13231E-3,.2909E-4,0
CARTOSAT-2C,2016-040A,2026-07-15T04:25:52.616928,15.19264086,.0009554,97.4469,255.7752,44.8870,315.3136,0,U,41599,999,55796,.12673E-3,.2606E-4,0
SKYSAT-C1,2016-040C,2026-07-15T00:35:07.207872,15.36746159,.0000285,96.9548,226.2409,314.5309,45.5913,0,U,41601,999,56214,.14384E-3,.5088E-4,0
LAPAN-A3,2016-040E,2026-07-15T04:33:46.266912,15.33277755,.000825,97.1505,191.4207,276.2287,83.8016,0,U,41603,999,55910,.592E-4,.183E-4,0
GAOFEN-3,2016-049A,2026-07-15T04:22:08.569632,14.42218984,.0001779,98.4010,203.5457,84.9356,275.2037,0,U,41727,999,52268,.4097E-4,.92E-6,0
